[{"OBJECT_NAME":"STARLINK-32176","OBJECT_ID":"2024-136M","EPOCH":"2026-03-09T06:59:42.131040","MEAN_MOTION":15.30192295,"ECCENTRICITY":0.00012983,"INCLINATION":53.1602,"RA_OF_ASC_NODE":77.509,"ARG_OF_PERICENTER":84.4689,"MEAN_ANOMALY":275.646,"EPHEMERIS_TYPE":0,"CLASSIFICATION_TYPE":"U","NORAD_CAT_ID":60340,"ELEMENT_SET_NO":999,"REV_AT_EPOCH":9077,"BSTAR":5.866709e-6,"MEAN_MOTION_DOT":-1.85e-6,"MEAN_MOTION_DDOT":0},{"OBJECT_NAME":"CZ-2C R\/B","OBJECT_ID":"2024-218A","EPOCH":"2026-03-09T22:16:31.791072","MEAN_MOTION":15.22960743,"ECCENTRICITY":0.00453409,"INCLINATION":97.5416,"RA_OF_ASC_NODE":83.973,"ARG_OF_PERICENTER":359.5317,"MEAN_ANOMALY":0.5869,"EPHEMERIS_TYPE":0,"CLASSIFICATION_TYPE":"U","NORAD_CAT_ID":62078,"ELEMENT_SET_NO":999,"REV_AT_EPOCH":7134,"BSTAR":0.00039378379,"MEAN_MOTION_DOT":9.445e-5,"MEAN_MOTION_DDOT":0}]
